[{"OBJECT_NAME":"STARLINK-3779","OBJECT_ID":"2022-041W","EPOCH":"2026-03-09T19:19:02.122752","MEAN_MOTION":15.08836079,"ECCENTRICITY":0.00012936,"INCLINATION":53.2167,"RA_OF_ASC_NODE":108.602,"ARG_OF_PERICENTER":86.7137,"MEAN_ANOMALY":273.4003,"EPHEMERIS_TYPE":0,"CLASSIFICATION_TYPE":"U","NORAD_CAT_ID":52281,"ELEMENT_SET_NO":999,"REV_AT_EPOCH":21438,"BSTAR":5.875822e-6,"MEAN_MOTION_DOT":-1.94e-6,"MEAN_MOTION_DDOT":0},{"OBJECT_NAME":"CZ-6A DEB","OBJECT_ID":"2024-140ADS","EPOCH":"2026-03-09T14:05:09.302208","MEAN_MOTION":15.17885306,"ECCENTRICITY":0.0073653,"INCLINATION":89.0442,"RA_OF_ASC_NODE":281.8925,"ARG_OF_PERICENTER":121.24,"MEAN_ANOMALY":239.6089,"EPHEMERIS_TYPE":0,"CLASSIFICATION_TYPE":"U","NORAD_CAT_ID":64628,"ELEMENT_SET_NO":999,"REV_AT_EPOCH":8034,"BSTAR":0.0029018,"MEAN_MOTION_DOT":0.00063537,"MEAN_MOTION_DDOT":0}]
